NORAD_CAT_ID,OBJECT_NAME,OBJECT_TYPE,EPOCH,MEAN_MOTION,ECCENTRICITY,INCLINATION,RA_OF_ASC_NODE,ARG_OF_PERICENTER,MEAN_ANOMALY,BSTAR,MEAN_MOTION_DOT,MEAN_MOTION_DDOT,TLE_LINE0,TLE_LINE1,TLE_LINE2,SEMIMAJOR_AXIS,PERIOD,APOGEE,PERIGEE,DECAYED
52096.0,STARLINK-3717,PAYLOAD,2023-06-21 10:26:00,15.08841989,9.53e-05,53.215,213.5281,87.256,272.8541,7.6508e-05,9.3e-06,0.0,0 STARLINK-3717,1 52096U 22029J   23172.43473216  .00000930  00000-0  76508-4 0  9994,2 52096  53.2150 213.5281 0000953  87.2560 272.8541 15.08841989 70983,6917.874,95.437,540.399,539.08,0.0
52096.0,STARLINK-3717,PAYLOAD,2023-06-21 19:58:19,15.08838148,9.86e-05,53.2149,211.7434,77.9,282.2103,5.0205e-05,5.11e-06,0.0,0 STARLINK-3717,1 52096U 22029J   23172.83217506  .00000511  00000-0  50205-4 0  9997,2 52096  53.2149 211.7434 0000986  77.9000 282.2103 15.08838148 71042,6917.886,95.438,540.433,539.069,0.0
52096.0,STARLINK-3717,PAYLOAD,2023-06-22 02:19:52,15.08837402,9.82e-05,53.2156,210.5531,81.7319,278.3785,8.9022e-05,1.129e-05,0.0,0 STARLINK-3717,1 52096U 22029J   23173.09713699  .00001129  00000-0  89022-4 0  9995,2 52096  53.2156 210.5531 0000982  81.7319 278.3785 15.08837402 71085,6917.888,95.438,540.433,539.074,0.0
52096.0,STARLINK-3717,PAYLOAD,2023-06-23 08:32:11,15.08843591,9.31e-05,53.2156,204.9029,82.1591,277.9506,8.846e-05,1.121e-05,0.0,0 STARLINK-3717,1 52096U 22029J   23174.35569436  .00001121  00000-0  88460-4 0  9990,2 52096  53.2156 204.9029 0000931  82.1591 277.9506 15.08843591 71278,6917.869,95.437,540.378,539.09,0.0
52096.0,STARLINK-3717,PAYLOAD,2023-06-24 02:01:26,15.08839229,9.25e-05,53.2157,201.6323,79.8544,280.2553,9.4006e-05,1.209e-05,0.0,0 STARLINK-3717,1 52096U 22029J   23175.08433696  .00001209  00000-0  94006-4 0  9999,2 52096  53.2157 201.6323 0000925  79.8544 280.2553 15.08839229 71388,6917.883,95.438,540.388,539.108,0.0
52096.0,STARLINK-3717,PAYLOAD,2023-06-25 08:13:46,15.08842719,9.58e-05,53.2155,195.9821,80.414,279.6961,6.3385e-05,7.21e-06,0.0,0 STARLINK-3717,1 52096U 22029J   23176.34289545  .00000721  00000-0  63385-4 0  9995,2 52096  53.2155 195.9821 0000958  80.4140 279.6961 15.08842719 71574,6917.872,95.437,540.4,539.074,0.0
52096.0,STARLINK-3717,PAYLOAD,2023-06-26 08:04:33,15.08839541,9.72e-05,53.2156,191.5217,77.9958,282.1143,5.2715e-05,5.51e-06,0.0,0 STARLINK-3717,1 52096U 22029J   23177.33649780  .00000551  00000-0  52715-4 0  9992,2 52096  53.2156 191.5217 0000972  77.9958 282.1143 15.08839541 71727,6917.882,95.438,540.419,539.074,0.0
52096.0,STARLINK-3717,PAYLOAD,2023-06-27 07:55:21,15.08833695,9.69e-05,53.2155,187.0613,76.4903,283.6197,-2.3426e-06,-3.25e-06,0.0,0 STARLINK-3717,1 52096U 22029J   23178.33010496 -.00000325  00000-0 -23426-5 0  9998,2 52096  53.2155 187.0613 0000969  76.4903 283.6197 15.08833695 71871,6917.9,95.438,540.435,539.094,0.0
52096.0,STARLINK-3717,PAYLOAD,2023-06-28 07:46:07,15.08838605,0.0001,53.216,182.6007,76.1321,283.9782,5.2309e-05,5.45e-06,0.0,0 STARLINK-3717,1 52096U 22029J   23179.32370257  .00000545  00000-0  52309-4 0  9995,2 52096  53.2160 182.6007 0001000  76.1321 283.9782 15.08838605 72020,6917.885,95.438,540.441,539.058,0.0
52096.0,STARLINK-3717,PAYLOAD,2023-06-29 09:12:17,15.08841664,0.0001011,53.216,177.8423,79.3706,280.74,0.00010847,1.439e-05,0.0,0 STARLINK-3717,1 52096U 22029J   23180.38353970  .00001439  00000-0  10847-3 0  9999,2 52096  53.2160 177.8423 0001011  79.3706 280.7400 15.08841664 72180,6917.875,95.437,540.44,539.041,0.0
52096.0,STARLINK-3717,PAYLOAD,2023-07-01 08:53:51,15.08841821,0.0001121,53.2159,168.9217,81.6308,278.4812,2.948e-05,1.81e-06,0.0,0 STARLINK-3717,1 52096U 22029J   23182.37074060  .00000181  00000-0  29480-4 0  9997,2 52096  53.2159 168.9217 0001121  81.6308 278.4812 15.08841821 72485,6917.875,95.437,540.515,538.964,0.0
52096.0,STARLINK-3717,PAYLOAD,2023-07-03 02:13:53,15.08839137,0.0001165,53.2164,161.1898,84.0658,276.0466,2.7306e-05,1.47e-06,0.0,0 STARLINK-3717,1 52096U 22029J   23184.09298324  .00000147  00000-0  27306-4 0  9996,2 52096  53.2164 161.1898 0001165  84.0658 276.0466 15.08839137 72749,6917.883,95.438,540.554,538.942,0.0
52096.0,STARLINK-3717,PAYLOAD,2023-07-03 14:56:59,15.08833538,0.000115,53.2164,158.8111,81.3692,278.743,-1.8465e-05,-5.82e-06,0.0,0 STARLINK-3717,1 52096U 22029J   23184.62290862 -.00000582  00000-0 -18465-4 0  9995,2 52096  53.2164 158.8111 0001150  81.3692 278.7430 15.08833538 72820,6917.9,95.438,540.561,538.97,0.0
52096.0,STARLINK-3717,PAYLOAD,2023-07-04 02:04:41,15.08818154,0.0001224,53.2164,156.7304,91.3089,268.8044,6.3123e-05,7.16e-06,0.0,0 STARLINK-3717,1 52096U 22029J   23185.08659708  .00000716  00000-0  63123-4 0  9992,2 52096  53.2164 156.7304 0001224  91.3089 268.8044 15.08818154 72899,6917.947,95.439,540.659,538.965,0.0
52096.0,STARLINK-3717,PAYLOAD,2023-07-04 08:26:14,15.08829766,0.0001209,53.2163,155.5409,84.925,275.188,-2.9002e-05,-7.49e-06,0.0,0 STARLINK-3717,1 52096U 22029J   23185.35155569 -.00000749  00000-0 -29002-4 0  9994,2 52096  53.2163 155.5409 0001209  84.9250 275.1880 15.08829766 72937,6917.912,95.438,540.613,538.94,0.0
52096.0,STARLINK-3717,PAYLOAD,2023-07-04 22:44:42,15.08836687,0.0001187,53.2164,152.8648,86.9065,273.2062,1.8481e-05,6e-08,0.0,0 STARLINK-3717,1 52096U 22029J   23185.94771234  .00000006  00000-0  18481-4 0  9995,2 52096  53.2164 152.8648 0001187  86.9065 273.2062 15.08836687 73026,6917.891,95.438,540.577,538.934,0.0
52096.0,STARLINK-3717,PAYLOAD,2023-07-06 06:32:24,15.08839057,0.0001183,53.2165,146.9168,88.5284,271.5844,0.00011462,1.537e-05,0.0,0 STARLINK-3717,1 52096U 22029J   23187.27251056  .00001537  00000-0  11462-3 0  9999,2 52096  53.2165 146.9168 0001183  88.5284 271.5844 15.08839057 73220,6917.883,95.438,540.567,538.93,0.0
52096.0,STARLINK-3717,PAYLOAD,2023-07-07 14:20:07,15.0884522,0.0001216,53.2169,140.9691,85.6819,274.4312,4.0169e-05,3.52e-06,0.0,0 STARLINK-3717,1 52096U 22029J   23188.59730874  .00000352  00000-0  40169-4 0  9996,2 52096  53.2169 140.9691 0001216  85.6819 274.4312 15.08845220 73421,6917.864,95.437,540.571,538.888,0.0
52096.0,STARLINK-3717,PAYLOAD,2023-07-08 20:32:27,15.0883712,0.0001559,53.2142,135.3211,83.0887,277.0283,1.4665e-05,-5.5e-07,0.0,0 STARLINK-3717,1 52096U 22029J   23189.85587406 -.00000055  00000-0  14665-4 0  9990,2 52096  53.2142 135.3211 0001559  83.0887 277.0283 15.08837120 73612,6917.889,95.438,540.833,538.676,0.0
52096.0,STARLINK-3717,PAYLOAD,2023-07-10 02:44:47,15.08838574,0.0001188,53.2171,129.6707,88.6006,271.5122,2.9122e-05,1.76e-06,0.0,0 STARLINK-3717,1 52096U 22029J   23191.11443413  .00000176  00000-0  29122-4 0  9998,2 52096  53.2171 129.6707 0001188  88.6006 271.5122 15.08838574 73808,6917.885,95.438,540.572,538.928,0.0
52096.0,STARLINK-3717,PAYLOAD,2023-07-11 05:46:20,15.08842151,0.0001432,53.2171,124.6149,86.2209,273.8947,0.00012343,1.677e-05,0.0,0 STARLINK-3717,1 52096U 22029J   23192.24051092  .00001677  00000-0  12343-3 0  9994,2 52096  53.2171 124.6149 0001432  86.2209 273.8947 15.08842151 73978,6917.874,95.437,540.729,538.748,0.0
52096.0,STARLINK-3717,PAYLOAD,2023-07-12 04:01:44,15.08837979,0.0001385,53.2172,120.4519,84.6935,275.4215,-4.4885e-06,-3.59e-06,0.0,0 STARLINK-3717,1 52096U 22029J   23193.16787873 -.00000359  00000-0 -44885-5 0  9995,2 52096  53.2172 120.4519 0001385  84.6935 275.4215 15.08837979 74114,6917.887,95.438,540.71,538.793,0.0
52096.0,STARLINK-3717,PAYLOAD,2023-07-13 05:27:54,15.08844433,0.0001269,53.2176,115.6948,90.4073,269.7064,-5.7345e-07,-2.97e-06,0.0,0 STARLINK-3717,1 52096U 22029J   23194.22771603 -.00000297  00000-0 -57345-6 0  9994,2 52096  53.2176 115.6948 0001269  90.4073 269.7064 15.08844433 74277,6917.867,95.437,540.61,538.854,0.0
52096.0,STARLINK-3717,PAYLOAD,2023-07-15 00:23:20,15.0881772,0.0001091,53.2168,107.6637,104.8681,255.2432,0.00045549,6.964e-05,0.0,0 STARLINK-3717,1 52096U 22029J   23196.01620412  .00006964  00000-0  45549-3 0  9999,2 52096  53.2168 107.6637 0001091 104.8681 255.2432 15.08817720 74540,6917.948,95.439,540.568,539.059,0.0
52096.0,STARLINK-3717,PAYLOAD,2023-07-15 03:34:05,15.08851037,0.0001193,53.2172,107.0696,93.2947,266.8181,0.00013336,1.836e-05,0.0,0 STARLINK-3717,1 52096U 22029J   23196.14866939  .00001836  00000-0  13336-3 0  9991,2 52096  53.2172 107.0696 0001193  93.2947 266.8181 15.08851037 74563,6917.847,95.437,540.537,538.886,0.0
52096.0,STARLINK-3717,PAYLOAD,2023-07-16 03:24:53,15.08839897,0.0001183,53.2176,102.6087,97.727,262.3857,-2.2294e-06,-3.23e-06,0.0,0 STARLINK-3717,1 52096U 22029J   23197.14228162 -.00000323  00000-0 -22294-5 0  9999,2 52096  53.2176 102.6087 0001183  97.7270 262.3857 15.08839897 74717,6917.881,95.438,540.564,538.927,0.0
52096.0,STARLINK-3717,PAYLOAD,2023-07-17 00:04:53,15.0884874,0.0001252,53.2182,98.743,93.987,266.1265,-3.7651e-05,-8.87e-06,0.0,0 STARLINK-3717,1 52096U 22029J   23198.00339808 -.00000887  00000-0 -37651-4 0  9992,2 52096  53.2182  98.7430 0001252  93.9870 266.1265 15.08848740 74848,6917.854,95.437,540.585,538.853,0.0
52096.0,STARLINK-3717,PAYLOAD,2023-07-18 01:31:03,15.08848069,0.0001257,53.2182,93.9855,89.5477,270.5659,0.00013319,1.833e-05,0.0,0 STARLINK-3717,1 52096U 22029J   23199.06323321  .00001833  00000-0  13319-3 0  9996,2 52096  53.2182  93.9855 0001257  89.5477 270.5659 15.08848069 75004,6917.856,95.437,540.59,538.851,0.0
52096.0,STARLINK-3717,PAYLOAD,2023-07-19 01:21:51,15.08838045,0.0001168,53.2177,89.5318,86.4326,273.68,-1.4479e-05,-5.18e-06,0.0,0 STARLINK-3717,1 52096U 22029J   23200.05684632 -.00000518  00000-0 -14479-4 0  9993,2 52096  53.2177  89.5318 0001168  86.4326 273.6800 15.08838045 75154,6917.886,95.438,540.559,538.943,0.0
52096.0,STARLINK-3717,PAYLOAD,2023-07-21 01:03:25,15.08836229,0.0001259,53.2187,80.6052,79.1041,281.0093,8.1732e-05,1.013e-05,0.0,0 STARLINK-3717,1 52096U 22029J   23202.04404931  .00001013  00000-0  81732-4 0  9991,2 52096  53.2187  80.6052 0001259  79.1041 281.0093 15.08836229 75458,6917.892,95.438,540.628,538.886,0.0
